OBJECT_NAME,OBJECT_ID,EPOCH,MEAN_MOTION,ECCENTRICITY,INCLINATION,RA_OF_ASC_NODE,ARG_OF_PERICENTER,MEAN_ANOMALY,EPHEMERIS_TYPE,CLASSIFICATION_TYPE,NORAD_CAT_ID,ELEMENT_SET_NO,REV_AT_EPOCH,BSTAR,MEAN_MOTION_DOT,MEAN_MOTION_DDOT
HXMT (HUIYAN),2017-034A,2026-06-17T12:41:47.428224,15.18478619,.0030629,43.0125,181.1377,149.3559,210.9086,0,U,42758,999,49771,.10687E-3,.2022E-4,0
SAOCOM 1A,2018-076A,2026-06-17T12:59:11.211936,14.82148190,.0001557,97.8875,355.2840,80.5437,279.5952,0,U,43641,999,41615,.46311E-4,.316E-5,0
H-2A R/B,2018-084L,2026-06-17T12:24:11.344608,15.45164304,.0023486,98.8571,47.4786,39.4806,320.8144,0,U,43682,999,42117,.34219E-3,.16287E-3,0
SAOCOM 1B,2020-059A,2026-06-17T12:06:49.801248,14.82146244,.0001613,97.8879,354.3431,83.7998,276.3399,0,U,46265,999,31353,-.16799E-6,-.54E-6,0
CSS (TIANHE),2021-035A,2026-06-17T10:11:54.530880,15.60819131,.0007448,41.4698,320.5549,79.0952,281.0725,0,U,48274,999,29320,.2252E-3,.19056E-3,0
COSMOS 2550,2021-056A,2026-06-17T13:05:52.074240,15.33847201,.0008352,67.1435,98.8215,268.6014,91.4184,0,U,48865,999,27877,.29765E-3,.9618E-4,0
CZ-2C R/B,2022-058K,2026-06-16T06:46:43.305888,15.61795532,.0032543,50.1832,168.2256,264.2442,95.4821,0,U,52794,999,22550,.34419E-3,.30822E-3,0
CZ-2C R/B,2022-132E,2026-06-17T11:17:59.483040,15.71519590,.0016088,97.2896,175.5075,83.3269,276.9825,0,U,54039,999,20599,.35668E-3,.45974E-3,0
GSLV R/B,2022-138AN,2026-06-17T09:14:33.230976,14.97258257,.0022907,87.3807,132.9179,142.9594,217.3224,0,U,54149,999,19884,.19825E-3,.2336E-4,0
XRISM,2023-137A,2026-06-16T23:49:26.738112,15.12465505,.0007958,31.0033,0.8620,321.8772,38.1304,0,U,57800,999,15283,.23198E-3,.4236E-4,0
ACS3,2024-077B,2026-06-17T08:22:42.978720,13.93997106,.007588,97.1682,87.1011,63.4337,297.4581,0,U,59588,999,10806,.22029E-1,.2991E-3,0
CZ-8A R/B,2025-231K,2026-06-16T21:53:41.626176,14.30154851,.0116489,50.0057,40.4857,223.0378,136.1383,0,U,66004,999,3490,.43962E-4,-.4E-6,0
SZ-21 MODULE,2025-246C,2026-06-17T12:46:53.918400,15.76430582,.0006303,41.4742,305.1743,350.6233,9.4493,0,U,66515,999,3379,.23828E-3,.38762E-3,0
